C/2020 H4 (Leonard),e,84.4959,307.5602,117.5260,47.81557,0.0029809,0.98065597,0.0000,08/29.5552/2020,2000,g 15.0,3.2
# From MPEC 2024-JU4
C/2020 H5 (Robinson),e,70.2506,210.6258,326.2890,4690,0.0000031,0.99800889,0.0000,12/10.1040/2020,2000,g  5.0,4.0
# From MPEC 2024-JU4
C/2020 H6 (ATLAS),e,79.9788,213.7158,20.2431,2936,0.0000062,0.99839928,0.0000,09/30.1040/2021,2000,g  8.0,3.2
# From MPEC 2020-KB7
C/2020 H7 (Lemmon),e,135.9235,323.5194,82.6780,1405,0.0000187,0.99685380,0.0000,06/02.9510/2020,2000,g 11.0,4.0
# From MPEC 2021-N06
C/2020 H8 (PANSTARRS),e,99.7057,68.4430,128.8895,599.1341,0.0000672,0.99220510,0.0000,06/04.6100/2020,2000,g 10.5,4.0
# From MPEC 2022-ED3
A/2020 H9,e,137.8780,213.1722,312.7380,359.0736,0.0001449,0.99285006,0.0000,12/21.9138/2019,2000,g 18.0,2.0
# From MPEC 2023-HN7
C/2020 H11 (PANSTARRS-Lemmon),h,09/13.9839/2020,151.3860,303.0501,91.4148,1.001215,7.623259,2000,8.5,4.0
# From MPEC 2023-KD6
C/2020 J1 (SONEAR),h,04/18.4762/2021,142.3059,226.6090,341.6703,1.000325,3.348945,2000,8.5,3.2
# From MPEC 2024-JU4
C/2020 K1 (PANSTARRS),e,89.6727,94.3638,213.9801,6170,0.0000020,0.99950185,0.0000,05/09.0301/2023,2000,g  5.5,4.0
# From MPEC 2021-N06
C/2020 K2 (PANSTARRS),h,08/05.7336/2020,91.0025,288.4186,67.3397,1.002447,8.880533,2000,10.8,4.0
# From MPEC 2020-KF9
C/2020 K3 (Leonard),p,06/01.0032/2020,129.0152,64.4924,1.583069,28.3546,2000,14.5,4.0
# From MPEC 2020-L06
C/2020 K4 (PANSTARRS),e,125.5853,264.2581,308.8501,23.96484,0.0084012,0.92698596,13.1607,06/18.0/2024,2000,g 16.5,4.0
# From MPEC 2021-R75
C/2020 K5 (PANSTARRS),h,06/05.0258/2021,67.0800,86.1477,249.6308,1.001110,1.538564,2000,11.0,4.0
# From MPEC 2023-N01
C/2020 K6 (Rankin),h,09/15.5335/2021,103.6411,291.5824,44.3215,1.003193,5.867979,2000,8.0,4.0
# From MPEC 2023-A50
C/2020 K7 (PANSTARRS),e,32.0444,286.1122,358.1846,96.41630,0.0010411,0.93368844,1.7659,06/18.0/2024,2000,g  8.0,4.0
# From MPEC 2021-P47
C/2020 K8 (Catalina-ATLAS),h,09/15.3022/2020,31.4303,181.4590,260.0051,1.000253,0.471000,2000,15.0,3.2
# From MPEC 2021-BE3
P/2020 K9 (Lemmon-PANSTARRS),e,23.2008,166.3140,197.0796,4.205399,0.1142861,0.32073870,139.6341,06/18.0/2024,2000,g 12.5,4.0
# From MPEC 2023-C45
P/2020 M1 (PANSTARRS),e,8.5334,142.6026,72.5897,5.314978,0.0804363,0.47305951,131.7750,06/18.0/2024,2000,g 14.5,4.0
# From MPEC 2022-H30
C/2020 M3 (ATLAS),e,23.4717,71.1700,328.6049,27.23238,0.0069355,0.95333132,9.2311,06/18.0/2024,2000,g 14.5,4.0
# From MPEC 2023-N01
A/2020 M4,h,11/23.6968/2020,160.1156,348.6226,104.5655,1.000719,5.945832,2000,14.5,2.0
# From MPC xxxxx
P/2020 MK4 (PANSTARRS),e,6.7860,0.6930,93.9900,6.218539,0.0635582,0.01371539,293.7409,06/18.0/2024,2000,g  8.0,4.0
# From MPEC 2023-FK0
C/2020 M5 (ATLAS),h,08/19.8569/2021,93.1985,352.0648,126.2619,1.000265,3.000466,2000,9.0,4.0
# From MPEC 2022-GA9
C/2020 N1 (PANSTARRS),h,03/12.7375/2021,29.7468,279.8805,186.7890,1.000649,1.317020,2000,12.5,4.0
# From MPEC 2021-P47
C/2020 N2 (ATLAS),e,161.0389,257.1768,331.2815,102.7298,0.0009466,0.98258553,0.0000,08/24.2181/2020,2000,g 16.0,3.2
# From MPEC 2024-JU4
C/2020 O2 (Amaral),h,08/27.9645/2021,71.7620,256.7909,10.2478,1.000567,4.860539,2000,8.0,3.2
# From MPEC 2023-C45
P/2020 O3 (PANSTARRS),e,8.4445,266.8186,81.4708,4.646836,0.0983939,0.10261905,121.7045,06/18.0/2024,2000,g 12.0,4.0
# From MPEC 2021-BE3
C/2020 P1 (NEOWISE),h,10/20.8642/2020,45.1695,53.4753,8.9051,1.000384,0.340766,2000,14.0,3.2
# From MPEC 2024-JU4
C/2020 P3 (ATLAS),h,04/22.2032/2021,61.8804,19.4725,82.3114,1.002885,6.813660,2000,6.0,4.0
# From MPEC 2022-PB4
C/2020 PV6 (PANSTARRS),e,128.1919,329.1434,71.3362,41.94535,0.0036281,0.94533917,3.6132,06/18.0/2024,2000,g 10.0,4.0
# From MPEC 2022-L66
C/2020 Q1 (Borisov),e,142.9447,52.3958,9.9912,61.78174,0.0020296,0.97865136,0.0000,08/14.7825/2020,2000,g 14.0,4.0
# From MPEC 2023-CD7
C/2020 Q2 (PANSTARRS),e,3.3353,179.8182,118.2859,10.61944,0.0284807,0.48986947,45.6766,06/18.0/2024,2000,g 12.0,3.2
# From MPEC 2024-F34
C/2020 R2 (PANSTARRS),e,53.2263,195.1029,211.8500,426.8201,0.0001118,0.98899831,0.0000,02/25.2740/2022,2000,g  9.0,4.0
# From MPEC 2022-K19
C/2020 R4 (ATLAS),e,164.4282,323.2567,46.6009,98.94677,0.0010014,0.98965569,0.0000,03/02.3818/2021,2000,g 13.5,4.0
# From MPEC 2023-C45
P/2020 R5 (PANSTARRS),e,11.4405,272.9483,82.7402,4.990905,0.0883965,0.31382459,130.9121,06/18.0/2024,2000,g  9.5,6.0
# From MPEC 2021-Y10
C/2020 R6 (Rankin),e,82.8387,12.1952,272.0010,298.5647,0.0001910,0.98949081,0.0000,09/07.4988/2019,2000,g 11.0,4.0
# From MPEC 2024-JU4
C/2020 R7 (ATLAS),h,09/16.1919/2022,114.9029,268.3014,347.8195,1.000106,2.954805,2000,7.0,3.2
# From MPEC 2021-BE3
P/2020 S1 (PANSTARRS),e,13.7206,129.5103,255.0814,5.998539,0.0670866,0.50745407,83.6849,06/18.0/2024,2000,g 14.0,4.0
# From MPEC 2022-ST7
C/2020 S2 (PANSTARRS),e,22.3971,197.6983,202.3732,10.24071,0.0300752,0.82817101,38.3061,06/18.0/2024,2000,g 17.0,4.0
# From MPEC 2024-JU4
C/2020 S3 (Erasmus),e,20.0253,222.5843,350.0574,144.7591,0.0005659,0.99727102,0.0000,12/11.5400/2020,2000,g 13.5,3.2
# From MPEC 2024-JU4
C/2020 S4 (PANSTARRS),h,02/09.3191/2023,20.5677,117.7018,21.0125,1.002093,3.369766,2000,8.5,3.2
# From MPEC 2021-BE3
P/2020 S5 (PANSTARRS),e,12.3434,316.0455,53.2514,4.056593,0.1206318,0.33794663,169.9761,06/18.0/2024,2000,g 14.5,4.0
# From MPEC 2021-BE3
P/2020 S7 (PANSTARRS),e,16.0791,328.0923,40.6220,5.034375,0.0872541,0.41017005,114.0780,06/18.0/2024,2000,g 14.5,4.0
# From MPEC 2021-P47
C/2020 S8 (Lemmon),e,108.5300,24.0548,160.1942,248.6678,0.0002513,0.99051769,0.0000,04/10.6462/2021,2000,g 12.5,4.0
# From MPEC 2022-TD3
C/2020 T2 (Palomar),e,27.8376,83.0575,150.4112,284.6537,0.0002052,0.99277334,0.0000,07/10.6508/2021,2000,g 11.0,3.2
# From MPEC 2021-N06
P/2020 T3 (PANSTARRS),e,7.2991,73.9932,357.0536,3.516531,0.1494626,0.59242232,185.8572,06/18.0/2024,2000,g 18.0,3.2
# From MPEC 2021-N06
C/2020 T4 (PANSTARRS),h,07/05.6315/2021,83.8526,50.6199,79.5859,1.000442,2.189845,2000,13.0,3.2
# From MPEC 2021-BE3
C/2020 T5 (Lemmon),e,66.5438,237.8278,90.3683,664.8092,0.0000575,0.99715010,0.0000,10/08.6289/2020,2000,g 16.0,4.0
# From MPEC 2021-N06
P/2020 U2 (PANSTARRS),e,6.4197,342.8603,84.6969,3.777939,0.1342214,0.51139123,170.3608,06/18.0/2024,2000,g 18.0,4.0
# From MPEC 2021-W31
C/2020 U3 (Rankin),e,30.1438,282.6338,124.4121,67.30463,0.0017850,0.96611775,2.1915,06/18.0/2024,2000,g 15.0,4.0
# From MPEC 2023-W26
C/2020 U4 (PANSTARRS),h,04/09.6749/2022,167.0144,120.3699,70.1118,1.000701,5.360685,2000,7.0,4.0
# From MPEC 2024-GJ3
C/2020 U5 (PANSTARRS),e,97.2938,107.3160,75.4516,4559,0.0000032,0.99917597,0.0000,04/28.0756/2022,2000,g  8.0,4.0
# From MPEC 2024-LE0
C/2020 V2 (ZTF),h,05/08.4640/2023,131.6123,212.3736,162.4036,1.000815,2.227918,2000,4.9,4.0
# From MPEC 2023-D72
P/2020 V3 (PANSTARRS),e,23.0301,198.2586,249.5811,8.398371,0.0404959,0.25770751,49.4610,06/18.0/2024,2000,g  8.3,4.0
# From MPEC 2024-F34
P/2020 V4 (Rankin),e,14.2429,203.4852,257.1282,9.384802,0.0342820,0.45124077,36.4950,06/18.0/2024,2000,g  9.0,4.0
# From MPEC 2021-BE3
P/2020 W1 (Rankin),e,10.7806,124.3930,265.2649,7.222100,0.0507819,0.26609640,77.6732,06/18.0/2024,2000,g 10.0,4.0
# From MPEC 2021-BE3
C/2020 W5 (Lemmon),h,11/30.5153/2020,88.6150,75.4681,24.5434,1.001586,3.367403,2000,15.0,4.0
# From MPEC 2024-LE0
P/2020 WJ5 (Lemmon),e,22.2895,177.7924,338.0592,6.015253,0.0668072,0.17174899,72.4227,06/18.0/2024,2000,g  8.5,4.0
# From MPEC 2024-F34
P/2020 X1 (ATLAS),e,31.6961,55.9802,323.4993,4.533861,0.1020943,0.36504490,145.8195,06/18.0/2024,2000,g 13.0,4.0
# From MPEC 2024-A43
C/2020 X2 (ATLAS),e,18.1849,105.3798,347.4665,16.50077,0.0147044,0.76799899,19.2523,06/18.0/2024,2000,g 10.6,4.0
# From MPEC 2021-S45
C/2020 X4 (Leonard),e,80.6355,161.9201,140.3176,40.70753,0.0037948,0.87165508,4.9719,06/18.0/2024,2000,g  9.0,4.0
# From MPEC 2024-C04
C/2020 Y2 (ATLAS),e,101.1886,26.5335,266.4153,1729,0.0000137,0.99818153,0.0000,06/18.2145/2022,2000,g  6.5,4.0
# From MPEC 2021-R75
C/2020 Y3 (ATLAS),e,83.1129,191.4091,341.8819,139.0295,0.0006012,0.98566798,0.0000,12/03.2498/2020,2000,g 13.5,4.0
# From MPEC 2023-CD7
C/2021 A1 (Leonard),h,01/03.4260/2022,132.7524,255.9110,225.1451,1.000135,0.616165,2000,8.5,4.0
# From MPEC 2022-F14
C/2021 A2 (NEOWISE),e,107.0201,125.1244,338.7690,228.3429,0.0002856,0.99381164,0.0000,01/22.1591/2021,2000,g 13.5,4.0
# From MPEC 2022-ED3
C/2021 A4 (NEOWISE),e,111.5826,307.1003,204.7266,42.38799,0.0035714,0.97289627,0.0000,03/19.5217/2021,2000,g 16.0,4.0
# From MPEC 2021-BE3
P/2021 A5 (PANSTARRS),e,18.1859,328.8193,61.4110,3.047321,0.1852792,0.13992140,243.1318,06/18.0/2024,2000,g 15.0,4.0
# From MPEC 2023-O39
C/2021 A6 (PANSTARRS),e,75.5825,164.0546,351.6089,9037,0.0000011,0.99912311,0.0000,05/02.8684/2021,2000,g  7.0,4.0
# From MPEC 2022-M88
C/2021 A7 (NEOWISE),e,78.1780,154.4577,355.9842,1826,0.0000126,0.99892387,0.0000,07/15.1293/2021,2000,g 10.0,4.0
# From MPEC 2024-GJ3
C/2021 A9 (PANSTARRS),h,12/02.4580/2023,158.0127,314.8331,211.5067,1.000995,7.760353,2000,6.0,4.0
# From MPEC 2021-N06
C/2021 A10 (NEOWISE),e,151.9612,188.7650,82.5301,89.39292,0.0011661,0.98586179,0.0000,03/14.9558/2021,2000,g 19.0,4.0
# From MPEC 2022-L66
C/2021 B2 (PANSTARRS),e,38.0827,120.4839,335.0277,385.3029,0.0001303,0.99348031,0.0000,05/04.6551/2021,2000,g 14.0,4.0
# From MPEC 2021-N06
C/2021 B3 (NEOWISE),e,119.4739,67.2720,293.5448,34.25605,0.0049158,0.93684351,5.8797,06/18.0/2024,2000,g 13.5,4.0
# From MPEC 2023-KD6
C/2021 C1 (Rankin),e,143.0428,186.8716,336.1371,2939,0.0000062,0.99881781,0.0000,12/06.4781/2020,2000,g 11.5,4.0
# From MPEC 2021-U31
P/2021 C2 (PANSTARRS),e,21.9407,66.4561,78.6952,9.538324,0.0334577,0.48787935,40.4909,06/18.0/2024,2000,g 12.0,4.0
# From MPEC 2021-N06
C/2021 C3 (Catalina),e,122.1772,181.9005,357.0112,60.89904,0.0020739,0.96267189,2.5350,06/18.0/2024,2000,g 14.0,4.0
# From MPEC 2022-M88
C/2021 C4 (ATLAS),e,132.8450,194.2627,320.1098,9096,0.0000011,0.99950564,0.0000,01/16.7113/2021,2000,g  9.0,4.0
# From MPEC 2023-R20
